NORAD_CAT_ID,OBJECT_NAME,OBJECT_TYPE,EPOCH,MEAN_MOTION,ECCENTRICITY,INCLINATION,RA_OF_ASC_NODE,ARG_OF_PERICENTER,MEAN_ANOMALY,BSTAR,MEAN_MOTION_DOT,MEAN_MOTION_DDOT,TLE_LINE0,TLE_LINE1,TLE_LINE2,SEMIMAJOR_AXIS,PERIOD,APOGEE,PERIGEE,DECAYED
50819.0,STARLINK-3327,PAYLOAD,2022-09-22 18:37:20,15.0875139,0.0002070999999999,53.2197,83.0536,56.7195,303.3995,0.0011745999999999,0.0001841,0.0,0 STARLINK-3327,1 50819U 22001S   22265.77592952  .00018410  00000-0  11746-2 0  9996,2 50819  53.2197  83.0536 0002071  56.7195 303.3995 15.08751390 40803,6918.151,95.443,541.4490000000002,538.5830000000002,0.0
50819.0,STARLINK-3327,PAYLOAD,2022-09-22 21:48:04,15.08833942,0.0001725,53.2197,82.459,50.4679,309.6466,2.521e-05,1.13e-06,0.0,0 STARLINK-3327,1 50819U 22001S   22265.90839019  .00000113  00000-0  25210-4 0  9993,2 50819  53.2197  82.4590 0001725  50.4679 309.6466 15.08833942 39623,6917.899,95.438,540.957,538.571,0.0
50819.0,STARLINK-3327,PAYLOAD,2022-09-23 18:28:04,15.08861477,0.0001624,53.2191,78.5931,43.0157,317.0962,-0.00017218,-3.029e-05,0.0,0 STARLINK-3327,1 50819U 22001S   22266.76950125 -.00003029  00000-0 -17218-3 0  9999,2 50819  53.2191  78.5931 0001624  43.0157 317.0962 15.08861477 40955,6917.815,95.436,540.803,538.556,0.0
50819.0,STARLINK-3327,PAYLOAD,2022-09-23 23:14:14,15.08844644,0.0001703,53.2195,77.7012,48.5762,311.5376,0.00010615,1.402e-05,0.0,0 STARLINK-3327,1 50819U 22001S   22266.96822209  .00001402  00000-0  10615-3 0  9997,2 50819  53.2195  77.7012 0001703  48.5762 311.5376 15.08844644 40988,6917.866,95.437,540.909,538.553,0.0
50819.0,STARLINK-3327,PAYLOAD,2022-09-24 16:43:29,15.08832639,0.0001669,53.2197,74.4308,49.6874,310.4264,3.5487e-05,2.77e-06,0.0,0 STARLINK-3327,1 50819U 22001S   22267.69687157  .00000277  00000-0  35487-4 0  9993,2 50819  53.2197  74.4308 0001669  49.6874 310.4264 15.08832639 39892,6917.903,95.438,540.922,538.613,0.0
50819.0,STARLINK-3327,PAYLOAD,2022-09-24 23:05:01,15.08837439,0.0001675999999999,53.2196,73.241,49.0962,311.0175,6.7702e-05,7.9e-06,0.0,0 STARLINK-3327,1 50819U 22001S   22267.96182842  .00000790  00000-0  67702-4 0  9999,2 50819  53.2196  73.2410 0001676  49.0962 311.0175 15.08837439 39938,6917.888000000001,95.438,540.913,538.594,0.0
50819.0,STARLINK-3327,PAYLOAD,2022-09-25 18:09:39,15.08838077,0.0001683,53.2199,69.6723,50.4057,309.7084,-3.6779e-05,-8.73e-06,0.0,0 STARLINK-3327,1 50819U 22001S   22268.75671281 -.00000873  00000-0 -36779-4 0  9991,2 50819  53.2199  69.6723 0001683  50.4057 309.7084 15.08838077 41256,6917.886,95.438,540.9159999999998,538.587,0.0
50819.0,STARLINK-3327,PAYLOAD,2022-09-26 13:14:17,15.08835728,0.0001644,53.2194,66.1044,48.7272,311.3862,1.6125e-05,-3.1e-07,0.0,0 STARLINK-3327,1 50819U 22001S   22269.55159419 -.00000031  00000-0  16125-4 0  9992,2 50819  53.2194  66.1044 0001644  48.7272 311.3862 15.08835728 40178,6917.893,95.438,540.896,538.621,0.0
50819.0,STARLINK-3327,PAYLOAD,2022-09-26 19:35:50,15.08829532,0.0001606,53.2196,64.9149,48.7313,311.3817,-4.0551e-05,-9.33e-06,0.0,0 STARLINK-3327,1 50819U 22001S   22269.81656107 -.00000933  00000-0 -40551-4 0  9999,2 50819  53.2196  64.9149 0001606  48.7313 311.3817 15.08829532 40217,6917.9119999999975,95.438,540.888,538.6659999999998,0.0
50819.0,STARLINK-3327,PAYLOAD,2022-09-27 03:32:46,15.08830842,0.0001496999999999,53.2198,63.4278,51.4426,308.67,4.1559e-05,3.73e-06,0.0,0 STARLINK-3327,1 50819U 22001S   22270.14775952  .00000373  00000-0  41559-4 0  9992,2 50819  53.2198  63.4278 0001497  51.4426 308.6700 15.08830842 41464,6917.908,95.438,540.809,538.738,0.0
50819.0,STARLINK-3327,PAYLOAD,2022-09-27 13:05:05,15.08835031,0.0001357,53.2201,61.6418,54.5116,305.6003,4.2147e-05,3.83e-06,0.0,0 STARLINK-3327,1 50819U 22001S   22270.54519754  .00000383  00000-0  42147-4 0  9997,2 50819  53.2201  61.6418 0001357  54.5116 305.6003 15.08835031 40322,6917.896,95.438,540.6990000000002,538.822,0.0
50819.0,STARLINK-3327,PAYLOAD,2022-09-27 16:15:51,15.08838557,0.0001469,53.2201,61.0481,54.0691,306.0438,6.160100000000001e-05,6.93e-06,0.0,0 STARLINK-3327,1 50819U 22001S   22270.67767548  .00000693  00000-0  61601-4 0  9997,2 50819  53.2201  61.0481 0001469  54.0691 306.0438 15.08838557 41541,6917.885,95.438,540.766,538.734,0.0
50819.0,STARLINK-3327,PAYLOAD,2022-09-27 19:26:36,15.08845363,0.0001696,53.2198,60.4548,52.4678,307.6468,0.0001087,1.443e-05,0.0,0 STARLINK-3327,1 50819U 22001S   22270.81015042  .00001443  00000-0  10870-3 0  9993,2 50819  53.2198  60.4548 0001696  52.4678 307.6468 15.08845363 40364,6917.864000000001,95.437,540.9019999999998,538.556,0.0
50819.0,STARLINK-3327,PAYLOAD,2022-09-28 03:23:32,15.0884045,0.0001597,53.2201,58.968,55.7526,304.3617,0.00030395,4.553e-05,0.0,0 STARLINK-3327,1 50819U 22001S   22271.14134801  .00004553  00000-0  30395-3 0  9994,2 50819  53.2201  58.9680 0001597  55.7526 304.3617 15.08840450 41617,6917.879,95.438,540.849,538.639,0.0
50819.0,STARLINK-3327,PAYLOAD,2022-09-28 12:55:51,15.08845975,0.0001414,53.2197,57.1814,55.2338,304.8788,0.00014604,2.037e-05,0.0,0 STARLINK-3327,1 50819U 22001S   22271.53878610  .00002037  00000-0  14604-3 0  9990,2 50819  53.2197  57.1814 0001414  55.2338 304.8788 15.08845975 40479,6917.861999999999,95.437,540.705,538.749,0.0
50819.0,STARLINK-3327,PAYLOAD,2022-09-28 19:17:23,15.088429500000002,0.0001694,53.2225,55.9953,60.0904,300.0257,0.00015765,2.222e-05,0.0,0 STARLINK-3327,1 50819U 22001S   22271.80374838  .00002222  00000-0  15765-3 0  9998,2 50819  53.2225  55.9953 0001694  60.0904 300.0257 15.08842950 40518,6917.871,95.437,540.908,538.564,0.0
50819.0,STARLINK-3327,PAYLOAD,2022-09-29 09:35:53,15.0883538,0.0001996,53.2201,53.32,48.0571,312.0591,-2.5933e-05,-7.01e-06,0.0,0 STARLINK-3327,1 50819U 22001S   22272.39992048 -.00000701  00000-0 -25933-4 0  9993,2 50819  53.2201  53.3200 0001996  48.0571 312.0591 15.08835380 41806,6917.895,95.438,541.14,538.379,0.0
50819.0,STARLINK-3327,PAYLOAD,2022-09-29 15:57:25,15.08834296,0.0001908,53.2213,52.1302,47.4352,312.6801,-1.5975999999999994e-05,-5.42e-06,0.0,0 STARLINK-3327,1 50819U 22001S   22272.66488186 -.00000542  00000-0 -15976-4 0  9995,2 50819  53.2213  52.1302 0001908  47.4352 312.6801 15.08834296 40648,6917.898,95.438,541.0830000000002,538.443,0.0
50819.0,STARLINK-3327,PAYLOAD,2022-09-30 09:26:39,15.08842902,0.000185,53.2214,48.8594,45.6113,314.5031,3.0178e-05,1.92e-06,0.0,0 STARLINK-3327,1 50819U 22001S   22273.39351423  .00000192  00000-0  30178-4 0  9999,2 50819  53.2214  48.8594 0001850  45.6113 314.5031 15.08842902 40756,6917.871999999999,95.437,541.016,538.457,0.0
50819.0,STARLINK-3327,PAYLOAD,2022-09-30 17:23:34,15.08853842,0.0001958,53.2206,47.3733,44.2633,315.8516,0.00011377,1.524e-05,0.0,0 STARLINK-3327,1 50819U 22001S   22273.72470429  .00001524  00000-0  11377-3 0  9993,2 50819  53.2206  47.3733 0001958  44.2633 315.8516 15.08853842 42004,6917.8380000000025,95.437,541.058,538.349,0.0
50819.0,STARLINK-3327,PAYLOAD,2022-09-30 18:58:57,15.08851032,0.0001831999999999,53.2205,47.0743,44.5881,315.5259,9.1985e-05,1.177e-05,0.0,0 STARLINK-3327,1 50819U 22001S   22273.79094579  .00001177  00000-0  91985-4 0  9996,2 50819  53.2205  47.0743 0001832  44.5881 315.5259 15.08851032 40817,6917.847,95.437,540.979,538.444,0.0
50819.0,STARLINK-3327,PAYLOAD,2022-10-01 12:28:12,15.08838342,0.0001716,53.2195,43.8016,54.6474,305.4678,0.00014044,1.948e-05,0.0,0 STARLINK-3327,1 50819U 22001S   22274.51959153  .00001948  00000-0  14044-3 0  9991,2 50819  53.2195  43.8016 0001716  54.6474 305.4678 15.08838342 40927,6917.885,95.438,540.938,538.563,0.0
50819.0,STARLINK-3327,PAYLOAD,2022-10-01 18:49:45,15.0883836,0.0002018,53.2197,42.6146,40.1031,320.011,0.0001125,1.503e-05,0.0,0 STARLINK-3327,1 50819U 22001S   22274.78455257  .00001503  00000-0  11250-3 0  9999,2 50819  53.2197  42.6146 0002018  40.1031 320.0110 15.08838360 40963,6917.885,95.438,541.146,538.354,0.0
50819.0,STARLINK-3327,PAYLOAD,2022-10-02 12:19:00,15.08837943,0.0002000999999999,53.2219,39.3461,42.3683,317.7464,-0.00014298,-2.563e-05,0.0,0 STARLINK-3327,1 50819U 22001S   22275.51320152 -.00002563  00000-0 -14298-3 0  9990,2 50819  53.2219  39.3461 0002001  42.3683 317.7464 15.08837943 41074,6917.887,95.438,541.136,538.367,0.0
50819.0,STARLINK-3327,PAYLOAD,2022-10-02 18:40:32,15.08838198,0.0001906999999999,53.2206,38.154,44.9716,315.1431,-8.294799999999999e-05,-1.608e-05,0.0,0 STARLINK-3327,1 50819U 22001S   22275.77815939 -.00001608  00000-0 -82948-4 0  9997,2 50819  53.2206  38.1540 0001907  44.9716 315.1431 15.08838198 41118,6917.886,95.438,541.07,538.432,0.0
50819.0,STARLINK-3327,PAYLOAD,2022-10-03 01:02:05,15.08841057,0.0001899999999999,53.2213,36.965,41.8034,318.3103,3.2518e-05,2.29e-06,0.0,0 STARLINK-3327,1 50819U 22001S   22276.04311370  .00000229  00000-0  32518-4 0  9992,2 50819  53.2213  36.9650 0001900  41.8034 318.3103 15.08841057 42352,6917.877,95.437,541.057,538.428,0.0
50819.0,STARLINK-3327,PAYLOAD,2022-10-03 12:09:46,15.08844862,0.0001937,53.221,34.8833,41.4063,318.7076,9.7614e-05,1.266e-05,0.0,0 STARLINK-3327,1 50819U 22001S   22276.50678977  .00001266  00000-0  97614-4 0  9992,2 50819  53.2210  34.8833 0001937  41.4063 318.7076 15.08844862 41222,6917.866,95.437,541.071,538.391,0.0
50819.0,STARLINK-3327,PAYLOAD,2022-10-04 00:52:50,15.0885717,0.0002064,53.2216,32.5046,42.3167,317.7985,0.00014927,2.089e-05,0.0,0 STARLINK-3327,1 50819U 22001S   22277.03669886  .00002089  00000-0  14927-3 0  9999,2 50819  53.2216  32.5046 0002064  42.3167 317.7985 15.08857170 42502,6917.828,95.436,541.121,538.265,0.0
50819.0,STARLINK-3327,PAYLOAD,2022-10-04 13:35:56,15.08847082,0.0002238,53.2216,30.1261,47.2177,312.9003,0.0001949,2.816e-05,0.0,0 STARLINK-3327,1 50819U 22001S   22277.56662388  .00002816  00000-0  19490-3 0  9995,2 50819  53.2216  30.1261 0002238  47.2177 312.9003 15.08847082 41387,6917.859,95.437,541.2719999999998,538.1759999999998,0.0
